#aV2024  4  2  0  0  0.00000000     288 DD+AD WGS84 FIT  NGA
## 2308 172800.00000000   300.00000000 60402 0.0000000000000
+   32     1  2  3  4  5  6  7  8  9 10 11 12 13 14 15 16 17
+         18 19 20 21 22 23 24 25 26 27 28 29 30 31 32  0  0
+          0  0  0  0  0  0  0  0  0  0  0  0  0  0  0  0  0
+          0  0  0  0  0  0  0  0  0  0  0  0  0  0  0  0  0
+          0  0  0  0  0  0  0  0  0  0  0  0  0  0  0  0  0
++         2  2  2  2  2  2  2  2  2  2  2  2  2  2  2  2  2
++         2  2  2  2  2  2  2  2  2  2  2  2  2  2  2  0  0
++         0  0  0  0  0  0  0  0  0  0  0  0  0  0  0  0  0
++         0  0  0  0  0  0  0  0  0  0  0  0  0  0  0  0  0
++         0  0  0  0  0  0  0  0  0  0  0  0  0  0  0  0  0
%c cc cc ccc ccc cccc cccc cccc cccc ccccc ccccc ccccc ccccc
%c cc cc ccc ccc cccc cccc cccc cccc ccccc ccccc ccccc ccccc
%f  0.0000000  0.000000000  0.00000000000  0.000000000000000
%f  0.0000000  0.000000000  0.00000000000  0.000000000000000
%i    0    0    0    0      0      0      0      0         0
%i    0    0    0    0      0      0      0      0         0
/*      NGA, ST. LOUIS,MO.                                  
/*   EPHEMERIS COMPUTED FROM 2 DAYS OF DATA                 
/*   EPOCHA v9 SMOOTHER                                     
/*   G2296 IERS2010 SATIGS SATAPC                           
*  2024  4  2  4 30  0.00000000
P  1 -10856.199397  22883.155763   7061.277870    177.372573                    
V  1    412.863031  -9709.327828  30918.189526      0.022874                    
P  2 -14129.675714  15213.655725  16889.080053   -460.349304                    
V  2   1478.532343 -20639.118129  20686.325170      0.063498                    
P  3 -21687.858743  12476.223348  -8875.425343    287.284043                    
V  3 -11184.843853   1194.595981  29615.863279      0.215983                    
P  4 -12799.779941   8428.884620 -21685.774556    329.158195                    
V  4 -19109.047214 -19850.481239   3430.432520      0.088969                    
P  5  25614.428871  -5035.711898  -5326.560505   -167.619847                    
V  5  -5390.131844   4349.827200 -30955.682462     -0.014005                    
P  6   7104.328341  18553.756582 -17504.755680    341.130685                    
V  6  -6747.030055  21327.449518  19901.695571     -0.173479                    
P  7  -4772.314484  25816.961082   2031.150715    -97.995964                    
V  7  -3896.271885   1131.701714 -31700.797114     -0.085680                    
P  8 -19325.110645    158.629304  18295.713267     95.891486                    
V  8 -16458.235343 -16576.199892 -16719.967245      0.245769                    
P  9    -15.128613  18310.245005 -19299.550122    145.664856                    
V  9 -18960.869190 -15363.758360 -14674.336786      0.134379                    
P 10  -8805.277008 -12614.385357  21898.106524     -4.591986                    
V 10  26032.654126  -7885.616361   5671.570602     -0.034453                    
P 11  13763.886959   6455.964056 -21758.624162   -624.651439                    
V 11  -7984.109705  26485.177737   2758.304640     -0.110145                    
P 12  22990.423339 -10770.270349  -7983.471140   -492.781385                    
V 12  10087.404874    392.929308  29639.596562     -0.035006                    
P 13  20165.209126   9936.592722  14119.472096    639.275179                    
V 13   9843.832185  15374.856318 -24305.222860      0.031904                    
P 14   4396.721963  14914.350024  21561.484337    365.869132                    
V 14 -26451.973101   7021.109951    340.894671      0.096123                    
P 15  19261.444155  -2496.012718  17710.522345    144.019892                    
V 15  18104.405313  15105.712657 -16891.885164      0.040337                    
P 16 -25202.496632  -1506.422395  -9290.770650   -326.855046                    
V 16  10550.530268  -4260.424137 -28538.610116      0.091730                    
P 17  10469.580381  22048.435701  10698.934127    711.245889                    
V 17 -10491.931077  -8003.408111  28011.007500     -0.016376                    
P 18   4990.304624 -25860.170534   2527.350482   -587.002344                    
V 18   3248.936507  -2464.874847 -31973.376650     -0.070088                    
P 19  16849.653427  20769.174426    886.483653    462.395760                    
V 19  -2582.771629    442.132360  31657.928207      0.053258                    
P 20  21200.654637   1922.875253 -15725.545579    381.709105                    
V 20 -17058.912528  10976.184801 -21720.856917     -0.014033                    
P 21 -15302.862148   9206.150349  19779.456854    128.939234                    
V 21   1976.301438 -24430.593235  14201.159359     -0.015697                    
P 22  12224.323463  12178.772124  20537.307793      6.736805                    
V 22 -24520.989646   5963.934018  11580.706266     -0.057549                    
P 23   4992.497643 -16125.352615  20479.416764    191.072001                    
V 23  24962.156521  -7162.815953 -11923.602824      0.089689                    
P 24  14600.066242 -13541.710935  16961.780544   -454.309257                    
V 24   -688.214107  22715.260066  18695.001215     -0.047992                    
P 25  14566.295513 -16113.113773 -15441.901222    492.806600                    
V 25  18946.908701  -3539.104397  22317.057172      0.009018                    
P 26 -18071.844761  -7599.284824 -18226.480355    172.080843                    
V 26  20694.937096  -9752.092286 -16223.068075     -0.048459                    
P 27 -22049.139825 -11170.345799   9993.737664    -15.995981                    
V 27  -7946.072015 -10474.906884 -28005.847235     -0.025185                    
P 28  -6685.975025 -20608.039436 -15382.176983   -187.124282                    
V 28   5886.387315 -18695.549693  22506.449564     -0.146362                    
P 29   3482.265549 -16811.873379 -20288.395951   -603.139949                    
V 29  17904.437216  18381.267579 -12292.835500      0.011259                    
P 30   2990.083991  23652.255489  11557.517372   -411.238359                    
V 30  -6580.129971  13443.483880 -26389.357493      0.054709                    
P 31 -12293.204691 -11200.972395 -20837.134876   -228.029110                    
V 31   7687.758202 -24952.685255   9362.349487     -0.000335                    
P 32 -14325.354248 -21073.940180   8062.680152   -617.418650                    
V 32   8876.164402   4997.722265  29404.898077     -0.007871                    
EOF
